CELESTIS-17 & SHERPA-FX1
1 47486U 21006CB  26068.64311433  .00007207  00000+0  24301-3 0  9993
2 47486  97.2397 112.1052 0006630 178.1385 181.9882 15.30994801284065
STARLINK-2713           
1 48602U 21041BB  26068.66670139  .00017496  00000+0  60221-3 0  9998
2 48602  53.1595 113.9599 0000876  75.4197  44.6441 15.30159001  5756
